OBJECT_NAME,OBJECT_ID,EPOCH,MEAN_MOTION,ECCENTRICITY,INCLINATION,RA_OF_ASC_NODE,ARG_OF_PERICENTER,MEAN_ANOMALY,EPHEMERIS_TYPE,CLASSIFICATION_TYPE,NORAD_CAT_ID,ELEMENT_SET_NO,REV_AT_EPOCH,BSTAR,MEAN_MOTION_DOT,MEAN_MOTION_DDOT
COSMOS 2534 [GLONASS-M],2019-030A,2024-08-13T07:39:56.914272,2.13102215,.0013521,64.3725,215.2995,278.8523,258.0899,0,U,44299,999,4058,0,.106E-5,0
YAMAL 601,2019-031A,2024-08-13T20:05:53.094048,1.00271979,.0002617,0.0111,118.0370,16.6232,178.5560,0,U,44307,999,1917,0,.13E-5,0
BUFENG 1A,2019-032A,2024-08-13T20:59:44.902464,15.08405265,.0007513,44.9796,80.3102,55.4890,304.6694,0,U,44310,999,28496,.12676E-2,.19855E-3,0
BUFENG 1B,2019-032B,2024-08-13T09:53:43.933056,15.13701858,.0007431,44.9757,46.6674,77.8492,282.3218,0,U,44311,999,28532,.10138E-2,.18357E-3,0
JILIN-1 GAOFEN 3A,2019-032C,2024-08-13T19:38:40.501248,15.12880154,.0007181,44.9836,45.3255,75.9619,284.2056,0,U,44312,999,28530,.10885E-2,.19277E-3,0
XIAOXIANG 4,2019-032D,2024-08-13T20:52:18.164352,15.21642028,.0003273,44.9914,25.4730,105.3836,254.7406,0,U,44313,999,28559,.16968E-2,.38965E-3,0
TIANQI-3,2019-032E,2024-08-13T20:06:46.578240,15.13601840,.0008245,44.9843,42.9426,76.8931,283.2866,0,U,44314,999,28535,.11709E-2,.21193E-3,0
RCM-1,2019-033A,2024-08-13T20:47:32.391168,14.92587195,.0001374,97.7603,232.9298,90.5439,269.5938,0,U,44322,999,28179,.37872E-3,.384E-4,0
RCM-3,2019-033B,2024-08-13T19:43:34.310496,14.92585227,.0001438,97.7596,232.9820,93.7461,266.3922,0,U,44323,999,28180,.43468E-3,.4416E-4,0
RCM-2,2019-033C,2024-08-13T20:15:33.570720,14.92591534,.0001649,97.7603,232.9558,90.9041,269.2368,0,U,44324,999,28179,.45038E-3,.4578E-4,0
AT&T T-16,2019-034A,2024-08-14T14:29:06.065088,1.00269708,.0000797,0.0080,118.5538,285.3522,36.0015,0,U,44333,999,1889,0,-.106E-5,0
EUTELSAT 7C,2019-034B,2024-08-14T13:03:32.239296,1.00271348,.0003495,0.0719,193.1775,294.2237,38.9675,0,U,44334,999,10,0,.57E-6,0
BEIDOU-3 IGSO-2,2019-035A,2024-08-13T18:23:06.432288,1.00279512,.003502,55.1842,164.7658,204.2597,348.4652,0,U,44337,999,1892,0,-.129E-5,0
PROX-1,2019-036A,2024-08-14T09:10:27.975072,14.68459428,.0008073,23.9981,210.6216,284.7715,75.1885,0,U,44339,999,27380,.40938E-2,.24511E-3,0
OTB,2019-036C,2024-08-14T12:09:14.761440,14.54672342,.0011466,23.9971,268.0603,188.2721,171.7582,0,U,44341,999,27336,.61072E-3,.2876E-4,0
FORMOSAT 7-3,2019-036E,2024-08-14T08:40:06.868704,15.08082380,.000081,23.9999,111.3389,150.4094,209.6455,0,U,44343,999,28169,.11825E-2,.191E-3,0
DSX,2019-036F,2024-08-13T08:53:17.149632,4.54374179,.1975219,42.2065,236.8720,86.2382,296.0345,0,U,44344,999,8526,0,.21E-6,0
FORMOSAT 7-1,2019-036L,2024-08-14T13:25:49.914336,15.08089758,.0001771,23.9997,285.9722,106.7910,253.2787,0,U,44349,999,28349,.90064E-3,.14622E-3,0
FORMOSAT 7-4,2019-036M,2024-08-14T13:56:33.426816,15.08084467,.0001229,24.0004,347.9042,129.9264,230.1347,0,U,44350,999,28291,.88383E-3,.14353E-3,0
FORMOSAT 7-6,2019-036Q,2024-08-14T06:33:57.512448,15.08046608,.0001371,23.9982,225.1844,130.2796,229.7828,0,U,44353,999,28061,.11081E-2,.17899E-3,0
FORMOSAT 7-5,2019-036V,2024-08-14T12:22:00.876288,15.08080779,.0001035,23.9985,163.2876,219.9432,140.0995,0,U,44358,999,28117,.91467E-3,.14841E-3,0
METEOR-M2 2,2019-038A,2024-08-13T20:11:35.962080,14.23925750,.0002014,98.8315,196.3053,122.9598,237.1774,0,U,44387,999,26559,.41952E-3,.917E-5,0
ICEYE-X5,2019-038C,2024-08-13T20:10:18.866496,15.15663664,.0017223,97.9207,223.1428,104.6078,255.7065,0,U,44389,999,27988,.16424E-2,.31399E-3,0
ICEYE-X4,2019-038D,2024-08-13T20:45:52.764192,15.10729807,.001952,97.8951,216.8481,108.3513,251.9841,0,U,44390,999,27963,.16963E-2,.28266E-3,0
DOT-1,2019-038P,2024-08-14T14:05:30.778656,15.45714202,.0010277,97.7076,227.4613,237.4813,122.5443,0,U,44399,999,28325,.12368E-2,.60144E-3,0
SONATE,2019-038Q,2024-08-14T12:34:24.612672,15.37433948,.001246,97.7141,224.3563,251.3180,108.6712,0,U,44400,999,28303,.10712E-2,.39484E-3,0
LUCKY-7,2019-038W,2024-08-14T12:22:39.489312,15.50647714,.001007,97.7025,229.4163,219.2054,140.8469,0,U,44406,999,28338,.13887E-2,.80373E-3,0
MOMENTUS-X1,2019-038Y,2024-08-14T13:14:13.910496,15.28846679,.0014383,97.7178,219.6354,273.7891,86.1703,0,U,44408,999,28279,.7585E-3,.21283E-3,0
COSMOS 2538,2019-039D,2024-08-13T20:38:46.870080,15.08560372,.0053891,97.6665,293.0311,204.9764,154.8856,0,U,44424,999,27808,.95088E-3,.15317E-3,0
