COSMOS 2534 [GLONASS-M] 
1 44299U 19030A   24226.31940873  .00000106  00000+0  00000+0 0  9997
2 44299  64.3725 215.2995 0013521 278.8523 258.0899  2.13102215 40582
YAMAL 601               
1 44307U 19031A   24226.83742007  .00000130  00000+0  00000+0 0  9991
2 44307   0.0111 118.0370 0002617  16.6232 178.5560  1.00271979 19175
BUFENG 1A               
1 44310U 19032A   24226.87482526  .00019855  00000+0  12676-2 0  9996
2 44310  44.9796  80.3102 0007513  55.4890 304.6694 15.08405265284961
BUFENG 1B               
1 44311U 19032B   24226.41231404  .00018357  00000+0  10138-2 0  9991
2 44311  44.9757  46.6674 0007431  77.8492 282.3218 15.13701858285321
JILIN-1 GAOFEN 3A       
1 44312U 19032C   24226.81852432  .00019277  00000+0  10885-2 0  9997
2 44312  44.9836  45.3255 0007181  75.9619 284.2056 15.12880154285308
XIAOXIANG 4             
1 44313U 19032D   24226.86965468  .00038965  00000+0  16968-2 0  9990
2 44313  44.9914  25.4730 0003273 105.3836 254.7406 15.21642028285598
TIANQI-3                
1 44314U 19032E   24226.83803910  .00021193  00000+0  11709-2 0  9994
2 44314  44.9843  42.9426 0008245  76.8931 283.2866 15.13601840285357
RCM-1                   
1 44322U 19033A   24226.86634712  .00003840  00000+0  37872-3 0  9998
2 44322  97.7603 232.9298 0001374  90.5439 269.5938 14.92587195281799
RCM-3                   
1 44323U 19033B   24226.82192489  .00004416  00000+0  43468-3 0  9993
2 44323  97.7596 232.9820 0001438  93.7461 266.3922 14.92585227281807
RCM-2                   
1 44324U 19033C   24226.84413855  .00004578  00000+0  45038-3 0  9993
2 44324  97.7603 232.9558 0001649  90.9041 269.2368 14.92591534281794
AT&T T-16               
1 44333U 19034A   24227.60354242 -.00000106  00000+0  00000+0 0  9993
2 44333   0.0080 118.5538 0000797 285.3522  36.0015  1.00269708 18892
EUTELSAT 7C             
1 44334U 19034B   24227.54412314  .00000057  00000+0  00000+0 0  9996
2 44334   0.0719 193.1775 0003495 294.2237  38.9675  1.00271348   105
BEIDOU-3 IGSO-2         
1 44337U 19035A   24226.76604667 -.00000129  00000+0  00000+0 0  9998
2 44337  55.1842 164.7658 0035020 204.2597 348.4652  1.00279512 18923
PROX-1                  
1 44339U 19036A   24227.38226823  .00024511  00000+0  40938-2 0  9991
2 44339  23.9981 210.6216 0008073 284.7715  75.1885 14.68459428273891
OTB                     
1 44341U 19036C   24227.50642085  .00002876  00000+0  61072-3 0  9993
2 44341  23.9971 268.0603 0011466 188.2721 171.7582 14.54672342273361
FORMOSAT 7-3            
1 44343U 19036E   24227.36119061  .00019100  00000+0  11825-2 0  9990
2 44343  23.9999 111.3389 0000810 150.4094 209.6455 15.08082380281691
DSX                     
1 44344U 19036F   24226.37033738  .00000021  00000+0  00000+0 0  9999
2 44344  42.2065 236.8720 1975219  86.2382 296.0345  4.54374179 85265
FORMOSAT 7-1            
1 44349U 19036L   24227.55960549  .00014622  00000+0  90064-3 0  9999
2 44349  23.9997 285.9722 0001771 106.7910 253.2787 15.08089758283558
FORMOSAT 7-4            
1 44350U 19036M   24227.58094244  .00014353  00000+0  88383-3 0  9996
2 44350  24.0004 347.9042 0001229 129.9264 230.1347 15.08084467282919
FORMOSAT 7-6            
1 44353U 19036Q   24227.27358232  .00017899  00000+0  11081-2 0  9993
2 44353  23.9982 225.1844 0001371 130.2796 229.7828 15.08046608280613
FORMOSAT 7-5            
1 44358U 19036V   24227.51528792  .00014841  00000+0  91467-3 0  9996
2 44358  23.9985 163.2876 0001035 219.9432 140.0995 15.08080779281176
METEOR-M2 2             
1 44387U 19038A   24226.84138845  .00000917  00000+0  41952-3 0  9994
2 44387  98.8315 196.3053 0002014 122.9598 237.1774 14.23925750265598
ICEYE-X5                
1 44389U 19038C   24226.84049614  .00031399  00000+0  16424-2 0  9994
2 44389  97.9207 223.1428 0017223 104.6078 255.7065 15.15663664279884
ICEYE-X4                
1 44390U 19038D   24226.86519403  .00028266  00000+0  16963-2 0  9993
2 44390  97.8951 216.8481 0019520 108.3513 251.9841 15.10729807279636
DOT-1                   
1 44399U 19038P   24227.58716179  .00060144  00000+0  12368-2 0  9997
2 44399  97.7076 227.4613 0010277 237.4813 122.5443 15.45714202283259
SONATE                  
1 44400U 19038Q   24227.52389598  .00039484  00000+0  10712-2 0  9999
2 44400  97.7141 224.3563 0012460 251.3180 108.6712 15.37433948283039
LUCKY-7                 
1 44406U 19038W   24227.51573483  .00080373  00000+0  13887-2 0  9991
2 44406  97.7025 229.4163 0010070 219.2054 140.8469 15.50647714283384
MOMENTUS-X1             
1 44408U 19038Y   24227.55154989  .00021283  00000+0  75850-3 0  9997
2 44408  97.7178 219.6354 0014383 273.7891  86.1703 15.28846679282796
COSMOS 2538             
1 44424U 19039D   24226.86026470  .00015317  00000+0  95088-3 0  9998
2 44424  97.6665 293.0311 0053891 204.9764 154.8856 15.08560372278085
